STARLINK-3821           
1 52357U 22045AC  22272.64372052 -.00000238  00000+0  31633-5 0  9993
2 52357  53.2178  82.2252 0001966  52.3218 307.7952 15.08830963 26019
STARLINK-3837           
1 52358U 22045AD  22272.49285055 -.00003904  00000+0 -22717-3 0  9998
2 52358  53.2205  82.8878 0001738  46.3733 313.7403 15.08866004 25992
STARLINK-3853           
1 52359U 22045AE  22272.44131035  .00001360  00000+0  10356-3 0  9990
2 52359  53.2188  83.1300 0001671  34.3336 325.7764 15.08835762 25988
STARLINK-3824           
1 52360U 22045AF  22272.75135109 -.00000030  00000+0  16220-4 0  9993
2 52360  53.2161  71.7406 0001829  31.3240 328.7861 15.08841475 26156
STARLINK-3728           
1 52361U 22045AG  22273.16261858 -.00000975  00000+0 -43191-4 0  9997
2 52361  53.2177  79.8841 0002029  45.5085 314.6073 15.08827583 26099
STARLINK-3848           
1 52362U 22045AH  22272.74769433 -.00000381  00000+0 -57953-5 0  9996
2 52362  53.2166  71.7548 0002561  39.5412 320.5766 15.08821346 26165
STARLINK-3830           
1 52363U 22045AJ  22273.15893931  .00001412  00000+0  10683-3 0  9995
2 52363  53.2186  79.8965 0001835  50.3301 309.7853 15.08822445 26090
STARLINK-3820           
1 52364U 22045AK  22272.74128658 -.00000068  00000+0  13888-4 0  9995
2 52364  53.2228  71.7716 0002808  38.9135 321.2059 15.08827983 26168
STARLINK-3874           
1 52365U 22045AL  22273.15247332 -.00000929  00000+0 -40263-4 0  9997
2 52365  53.2147  69.9262 0001813  47.5100 312.6045 15.08837877 26226
STARLINK-3808           
1 52366U 22045AM  22273.13407444 -.00002704  00000+0 -15178-3 0  9997
2 52366  53.2159  70.0120 0001950  50.4093 309.7071 15.08853629 26221
STARLINK-3817           
1 52367U 22045AN  22272.81024856 -.00001005  00000+0 -45050-4 0  9990
2 52367  53.2158  71.4661 0002098  37.7589 322.3550 15.08830700 26170
STARLINK-3834           
1 52368U 22045AP  22272.85808050 -.00002423  00000+0 -13418-3 0  9998
2 52368  53.2164  71.2482 0001952  55.0140 305.1035 15.08831081 26171
STARLINK-3841           
1 52369U 22045AQ  22272.47535679 -.00001068  00000+0 -49033-4 0  9998
2 52369  53.2187  72.9692 0001530  53.0270 307.0862 15.08836510 26128
STARLINK-3827           
1 52370U 22045AR  22272.73295334 -.00000641  00000+0 -22143-4 0  9999
2 52370  53.2179  71.8148 0001952  56.6728 303.4450 15.08841917 26164
STARLINK-3798           
1 52371U 22045AS  22272.46431411 -.00000436  00000+0 -92986-5 0  9993
2 52371  53.2179  73.0181 0002049  51.8041 308.3135 15.08838290 26118
STARLINK-3796           
1 52372U 22045AT  22272.98685868 -.00006231  00000+0 -37333-3 0  9990
2 52372  53.2144  70.6663 0001989  49.0058 311.1106 15.08877449 26195
STARLINK-3550           
1 52373U 22045AU  22272.44592603  .00002118  00000+0  15116-3 0  9999
2 52373  53.2171  73.0901 0001447  59.5849 300.5286 15.08838701 26123
STARLINK-3762           
1 52374U 22045AV  22273.17823951 -.00000535  00000+0 -15527-4 0  9994
2 52374  53.2180  69.8036 0001506  53.4517 306.6613 15.08843421 26235
STARLINK-3785           
1 52375U 22045AW  22272.71822800 -.00001399  00000+0 -69772-4 0  9996
2 52375  53.2156  71.8731 0001563  59.4956 300.6190 15.08847773 26160
STARLINK-3767           
1 52376U 22045AX  22273.17087504  .00001398  00000+0  10592-3 0  9994
2 52376  53.2184  69.8389 0001771  55.0410 305.0748 15.08846742 26237
STARLINK-3805           
1 52377U 22045AY  22273.17182545  .00002234  00000+0  15836-3 0  9992
2 52377  53.2207  69.8380 0001804  52.5780 307.5377 15.08848921 26229
STARLINK-3806           
1 52378U 22045AZ  22272.56736036  .00001012  00000+0  81680-4 0  9999
2 52378  53.2187  72.5476 0001688  48.8046 311.3092 15.08844808 26145
STARLINK-3800           
1 52379U 22045BA  22273.16720536 -.00000571  00000+0 -17802-4 0  9991
2 52379  53.2206  69.8554 0000848  70.1731 289.9353 15.08841689 26234
STARLINK-3793           
1 52380U 22045BB  22272.81211304 -.00011978  00000+0 -73465-3 0  9991
2 52380  53.2142  61.4561 0002446  62.5793 297.5447 15.08891301 26314
STARLINK-3803           
1 52381U 22045BC  22273.15985797  .00002303  00000+0  16275-3 0  9990
2 52381  53.2192  69.8906 0001962  43.3249 316.7897 15.08834682 26233
STARLINK-3799           
1 52382U 22045BD  22273.15615655  .00000488  00000+0  48764-4 0  9995
2 52382  53.2208  69.9022 0001966  42.4061 317.7083 15.08846899 26239
STARLINK-3811           
1 52383U 22045BE  22272.91667824  .00033963  00000+0  21423-2 0  9999
2 52383  53.2185  60.9829 0001873  40.4813 347.8852 15.08830880  1302
JILIN-01 GAOFEN 4A      
1 52388U 22046A   22273.15422924  .00005515  00000+0  33771-3 0  9994
2 52388  97.5400 358.8547 0014743 118.4520 303.3904 15.10510800 23090
JILIN-01 GAOFEN 3D 4    
1 52389U 22046B   22273.11352034  .00005480  00000+0  33099-3 0  9999
2 52389  97.5399 358.9315 0014043 129.4902 348.2642 15.11022803 23089
JILIN-01 GAOFEN 3D 5    
1 52390U 22046C   22273.21929594  .00004959  00000+0  29785-3 0  9990
2 52390  97.5329 358.9482 0014377 130.0683 314.0400 15.11265788 23100
JILIN-01 GAOFEN 3D 6    
1 52391U 22046D   22273.20139205  .00005000  00000+0  29880-3 0  9996
2 52391  97.5452 359.2196 0014839 132.7095 311.0509 15.11446673 23104
JILIN-01 GAOFEN 3D 7    
1 52392U 22046E   22273.24407054  .00005674  00000+0  33636-3 0  9992
2 52392  97.5384 359.1657 0015032 131.4775 286.3692 15.11675570 23115
SPACEBEE-143            
1 52394U 22047A   22272.50505267  .00011098  00000+0  59995-3 0  9991
2 52394  97.4452 355.1470 0009203 167.6013 192.5448 15.14814801 24090
SPACEBEENZ-15           
1 52395U 22047B   22273.18353459  .00014421  00000+0  75938-3 0  9999
2 52395  97.4448 355.9191 0009312 164.8529 195.2984 15.15684171 24200
SPACEBEENZ-16           
1 52396U 22047C   22272.65533975  .00014531  00000+0  76560-3 0  9998
2 52396  97.4446 355.4015 0009275 166.4473 193.7010 15.15662088 24120
SPACEBEENZ-17           
1 52397U 22047D   22273.18556101  .00014231  00000+0  75034-3 0  9996
2 52397  97.4446 355.9167 0009329 165.0534 195.0976 15.15641569 24203
SPACEBEENZ-18           
1 52398U 22047E   22272.46015263  .00012991  00000+0  68590-3 0  9996
2 52398  97.4451 355.2043 0009243 167.1358 193.0112 15.15615249 24091
SPACEBEE-140            
1 52399U 22047F   22272.54488194  .00011476  00000+0  61278-3 0  9996
2 52399  97.4449 355.2459 0009286 165.7999 194.3496 15.15246244 24120
SPACEBEE-141            
1 52400U 22047G   22272.49439859  .00010703  00000+0  57671-3 0  9991
2 52400  97.4454 355.1615 0009278 165.3904 194.7598 15.14941903 24103
SPACEBEE-142            
1 52401U 22047H   22272.50382596  .00010944  00000+0  59212-3 0  9999
2 52401  97.4450 355.1458 0009207 165.5500 194.5997 15.14789108 24097
SPACEBEENZ-20           
1 52402U 22047J   22272.66480868  .00014363  00000+0  75907-3 0  9996
2 52402  97.4444 355.3762 0009913 169.5370 190.6071 15.15549995 24127
SPACEBEENZ-22           
1 52403U 22047K   22273.19794083  .00012815  00000+0  67942-3 0  9993
2 52403  97.4438 355.8873 0009999 167.6605 192.4875 15.15463858 24207
SPACEBEENZ-19           
1 52404U 22047L   22273.19108994  .00013740  00000+0  72552-3 0  9995
2 52404  97.4439 355.8972 0010183 167.5625 192.5861 15.15590021 24206
SPACEBEENZ-21           
1 52405U 22047M   22272.66588044  .00013656  00000+0  72237-3 0  9991
2 52405  97.4446 355.3756 0009966 169.3153 190.8293 15.15528563 24126
SPACEBEE-148            
1 52406U 22047N   22272.48655892  .00010531  00000+0  56399-3 0  9998
2 52406  97.4445 355.1576 0009933 168.9648 191.1804 15.15156805 24096
SPACEBEE-149            
1 52407U 22047P   22273.17152749  .00011704  00000+0  63321-3 0  9995
2 52407  97.4441 355.7683 0009913 166.8394 193.3099 15.14769028 24198
SPACEBEE-153            
1 52408U 22047Q   22272.68850831  .00011316  00000+0  60726-3 0  9993
2 52408  97.4475 355.4020 0009781 179.3188 180.8060 15.15068169 24122
SPACEBEE-150            
1 52409U 22047R   22273.16634868  .00010759  00000+0  58151-3 0  9997
2 52409  97.4444 355.7792 0009855 167.4086 192.7395 15.14824348 24193
SPACEBEE-144            
1 52410U 22047S   22273.16514616  .00010645  00000+0  57513-3 0  9992
2 52410  97.4456 355.7951 0009223 166.2453 193.9032 15.14847067 24193
SPACEBEE-145            
1 52411U 22047T   22272.50907913  .00011267  00000+0  60990-3 0  9990
2 52411  97.4452 355.1403 0009081 168.6548 191.4891 15.14766486 24099
SPACEBEE-146            
1 52412U 22047U   22272.65281920  .00011323  00000+0  61633-3 0  9998
2 52412  97.4443 355.2486 0009133 168.2372 191.9076 15.14566221 24119
SPACEBEE-151            
1 52413U 22047V   22273.17129617  .00010806  00000+0  58505-3 0  9990
2 52413  97.4442 355.7717 0009800 168.5427 191.6030 15.14763946 24194
SPACEBEE-152            
1 52414U 22047W   22273.17966316  .00011102  00000+0  60285-3 0  9994
2 52414  97.4438 355.7566 0009775 168.3283 191.8178 15.14652566 24191
SPACEBEE-147            
1 52415U 22047X   22273.17618214  .00010837  00000+0  58768-3 0  9993
2 52415  97.4448 355.7800 0009139 168.4144 191.7300 15.14711504 24199
SPACEBEE-155            
1 52416U 22047Y   22273.12703379  .00009117  00000+0  50065-3 0  9997
2 52416  97.4431 355.6708 0010218 172.3165 187.8226 15.14304217 24186
SPACEBEE-154            
1 52417U 22047Z   22273.18366845  .00011062  00000+0  60191-3 0  9990
2 52417  97.4441 355.7544 0009700 170.2053 189.9370 15.14581812 24196
TRSI-3                  
1 52418U 22047AA  22273.18442775  .00010544  00000+0  57388-3 0  9996
2 52418  97.4436 355.7303 0009512 170.8590 189.2816 15.14584140 24192
MYRADAR1                
1 52419U 22047AB  22272.20708523  .00007383  00000+0  40627-3 0  9990
2 52419  97.4437 354.7435 0009512 173.1594 186.9769 15.14302717 24042
TRSI-2                  
1 52420U 22047AC  22273.18605547  .00010521  00000+0  57280-3 0  9993
2 52420  97.4435 355.7276 0009477 171.1658 188.9743 15.14575167 24196
